[{"OBJECT_NAME":"RESURS-P 4","OBJECT_ID":"2024-061A","EPOCH":"2026-03-10T00:09:50.865408","MEAN_MOTION":15.32930455,"ECCENTRICITY":0.00024315,"INCLINATION":97.2654,"RA_OF_ASC_NODE":18.6595,"ARG_OF_PERICENTER":59.481,"MEAN_ANOMALY":300.6672,"EPHEMERIS_TYPE":0,"CLASSIFICATION_TYPE":"U","NORAD_CAT_ID":59371,"ELEMENT_SET_NO":999,"REV_AT_EPOCH":10857,"BSTAR":0.00016169192,"MEAN_MOTION_DOT":5.066e-5,"MEAN_MOTION_DDOT":0},{"OBJECT_NAME":"STARLINK-35088","OBJECT_ID":"2025-189X","EPOCH":"2026-03-09T16:39:07.666272","MEAN_MOTION":15.30195891,"ECCENTRICITY":0.00012529,"INCLINATION":53.1599,"RA_OF_ASC_NODE":206.9909,"ARG_OF_PERICENTER":52.8689,"MEAN_ANOMALY":307.2426,"EPHEMERIS_TYPE":0,"CLASSIFICATION_TYPE":"U","NORAD_CAT_ID":65344,"ELEMENT_SET_NO":999,"REV_AT_EPOCH":3111,"BSTAR":0.0013369662,"MEAN_MOTION_DOT":0.00039443,"MEAN_MOTION_DDOT":0}]
